{
  "links": {
    "next": "https://api.nasa.gov/neo/rest/v1/feed?start_date=2016-11-20&end_date=2016-11-21&detailed=true&api_key=DEMO_KEY",
    "prev": "https://api.nasa.gov/neo/rest/v1/feed?start_date=2016-11-18&end_date=2016-11-19&detailed=true&api_key=DEMO_KEY",
    "self": "https://api.nasa.gov/neo/rest/v1/feed?start_date=2016-11-19&end_date=2016-11-20&detailed=true&api_key=DEMO_KEY"
  },
  "element_count": 9,
  "near_earth_objects": {
    "2016-11-19": [
      {
        "links": {
          "self": "https://api.nasa.gov/neo/rest/v1/neo/2068950?api_key=DEMO_KEY"
        },
        "neo_reference_id": "2068950",
        "name": "68950 (2002 QF15)",
        "nasa_jpl_url": "http://ssd.jpl.nasa.gov/sbdb.cgi?sstr=2068950",
        "absolute_magnitude_h": 16.4,
        "estimated_diameter": {
          "kilometers": {
            "estimated_diameter_min": 1.3949382293,
            "estimated_diameter_max": 3.1191767052
          },
          "meters": {
            "estimated_diameter_min": 1394.9382293439,
            "estimated_diameter_max": 3119.1767052261
          },
          "miles": {
            "estimated_diameter_min": 0.8667741625,
            "estimated_diameter_max": 1.9381659485
          },
          "feet": {
            "estimated_diameter_min": 4576.5691403606,
            "estimated_diameter_max": 10233.5197015741
          }
        },
        "is_potentially_hazardous_asteroid": true,
        "close_approach_data": [
          {
            "close_approach_date": "2016-11-19",
            "epoch_date_close_approach": 1479542400000,
            "relative_velocity": {
              "kilometers_per_second": "15.2812529077",
              "kilometers_per_hour": "55012.5104677844",
              "miles_per_hour": "34182.6346292742"
            },
            "miss_distance": {
              "astronomical": "0.1609690439",
              "lunar": "62.6169586182",
              "kilometers": "24080628",
              "miles": "14963008"
            },
            "orbiting_body": "Earth"
          }
        ],
        "orbital_data": {
          "orbit_id": "242",
          "orbit_determination_date": "2016-11-16 05:46:39",
          "orbit_uncertainty": "0",
          "minimum_orbit_intersection": ".00580106",
          "jupiter_tisserand_invariant": "5.690",
          "epoch_osculation": "2457600.5",
          "eccentricity": ".3442443695693617",
          "semi_major_axis": "1.056742153617099",
          "inclination": "25.15399159688671",
          "ascending_node_longitude": "236.2470281457961",
          "orbital_period": "396.7820113867592",
          "perihelion_distance": ".6929646171478112",
          "perihelion_argument": "255.5372381468924",
          "aphelion_distance": "1.420519690086387",
          "perihelion_time": "2457761.921806248545",
          "mean_anomaly": "213.5421249406585",
          "mean_motion": ".9072991962054795",
          "equinox": "J2000"
        }
      },
      {
        "links": {
          "self": "https://api.nasa.gov/neo/rest/v1/neo/3763626?api_key=DEMO_KEY"
        },
        "neo_reference_id": "3763626",
        "name": "(2016 VX5)",
        "nasa_jpl_url": "http://ssd.jpl.nasa.gov/sbdb.cgi?sstr=3763626",
        "absolute_magnitude_h": 21.566,
        "estimated_diameter": {
          "kilometers": {
            "estimated_diameter_min": 0.1292275101,
            "estimated_diameter_max": 0.2889614971
          },
          "meters": {
            "estimated_diameter_min": 129.2275101,
            "estimated_diameter_max": 288.9614971466
          },
          "miles": {
            "estimated_diameter_min": 0.0802982272,
            "estimated_diameter_max": 0.1795522944
          },
          "feet": {
            "estimated_diameter_min": 423.9747842365,
            "estimated_diameter_max": 948.0364382985
          }
        },
        "is_potentially_hazardous_asteroid": false,
        "close_approach_data": [
          {
            "close_approach_date": "2016-11-19",
            "epoch_date_close_approach": 1479542400000,
            "relative_velocity": {
              "kilometers_per_second": "14.140049467",
              "kilometers_per_hour": "50904.1780812814",
              "miles_per_hour": "31629.8766527829"
            },
            "miss_distance": {
              "astronomical": "0.2986375059",
              "lunar": "116.1699905396",
              "kilometers": "44675536",
              "miles": "27760090"
            },
            "orbiting_body": "Earth"
          }
        ],
        "orbital_data": {
          "orbit_id": "2",
          "orbit_determination_date": "2016-11-18 06:10:39",
          "orbit_uncertainty": "9",
          "minimum_orbit_intersection": ".261334",
          "jupiter_tisserand_invariant": "3.305",
          "epoch_osculation": "2457707.5",
          "eccentricity": ".4685551309453831",
          "semi_major_axis": "2.315501204997586",
          "inclination": "26.20365204861736",
          "ascending_node_longitude": "243.81662930",
          "orbital_period": "1286.962652393513",
          "perihelion_distance": "1.23056123468575",
          "perihelion_argument": "158.8766546992174",
          "aphelion_distance": "3.400441175309422",
          "perihelion_time": "2457687.331795603186",
          "mean_anomaly": "5.641619490161391",
          "mean_motion": ".2797283971919982",
          "equinox": "J2000"
        }
      },
      {
        "links": {
          "self": "https://api.nasa.gov/neo/rest/v1/neo/3164401?api_key=DEMO_KEY"
        },
        "neo_reference_id": "3164401",
        "name": "(2003 UY12)",
        "nasa_jpl_url": "http://ssd.jpl.nasa.gov/sbdb.cgi?sstr=3164401",
        "absolute_magnitude_h": 22.9,
        "estimated_diameter": {
          "kilometers": {
            "estimated_diameter_min": 0.0699125232,
            "estimated_diameter_max": 0.1563291544
          },
          "meters": {
            "estimated_diameter_min": 69.9125232246,
            "estimated_diameter_max": 156.3291544087
          },
          "miles": {
            "estimated_diameter_min": 0.0434416145,
            "estimated_diameter_max": 0.097138403
          },
          "feet": {
            "estimated_diameter_min": 229.3718026961,
            "estimated_diameter_max": 512.8909429502
          }
        },
        "is_potentially_hazardous_asteroid": false,
        "close_approach_data": [
          {
            "close_approach_date": "2016-11-19",
            "epoch_date_close_approach": 1479542400000,
            "relative_velocity": {
              "kilometers_per_second": "14.3319847975",
              "kilometers_per_hour": "51595.1452709518",
              "miles_per_hour": "32059.2167934978"
            },
            "miss_distance": {
              "astronomical": "0.1863792165",
              "lunar": "72.5015106201",
              "kilometers": "27881934",
              "miles": "17325030"
            },
            "orbiting_body": "Earth"
          }
        ],
        "orbital_data": {
          "orbit_id": "14",
          "orbit_determination_date": "2014-06-13 03:38:53",
          "orbit_uncertainty": "1",
          "minimum_orbit_intersection": ".0116816",
          "jupiter_tisserand_invariant": "7.988",
          "epoch_osculation": "2457600.5",
          "eccentricity": ".5945355359026181",
          "semi_major_axis": ".7010840889057247",
          "inclination": "16.41134859228689",
          "ascending_node_longitude": "22.90192333014991",
          "orbital_period": "214.4142243244092",
          "perihelion_distance": ".2842646843953609",
          "perihelion_argument": "200.6313936733055",
          "aphelion_distance": "1.117903493416089",
          "perihelion_time": "2457576.683936251186",
          "mean_anomaly": "39.9870063499184",
          "mean_motion": "1.67899308515707",
          "equinox": "J2000"
        }
      },
      {
        "links": {
          "self": "https://api.nasa.gov/neo/rest/v1/neo/3477945?api_key=DEMO_KEY"
        },
        "neo_reference_id": "3477945",
        "name": "(2009 WN8)",
        "nasa_jpl_url": "http://ssd.jpl.nasa.gov/sbdb.cgi?sstr=3477945",
        "absolute_magnitude_h": 25.2,
        "estimated_diameter": {
          "kilometers": {
            "estimated_diameter_min": 0.0242412481,
            "estimated_diameter_max": 0.0542050786
          },
          "meters": {
            "estimated_diameter_min": 24.2412481101,
            "estimated_diameter_max": 54.2050786336
          },
          "miles": {
            "estimated_diameter_min": 0.0150628086,
            "estimated_diameter_max": 0.0336814639
          },
          "feet": {
            "estimated_diameter_min": 79.5316564495,
            "estimated_diameter_max": 177.8381901842
          }
        },
        "is_potentially_hazardous_asteroid": false,
        "close_approach_data": [
          {
            "close_approach_date": "2016-11-19",
            "epoch_date_close_approach": 1479542400000,
            "relative_velocity": {
              "kilometers_per_second": "16.0883294839",
              "kilometers_per_hour": "57917.9861419745",
              "miles_per_hour": "35987.9842224952"
            },
            "miss_distance": {
              "astronomical": "0.1548780063",
              "lunar": "60.247543335",
              "kilometers": "23169420",
              "miles": "14396810"
            },
            "orbiting_body": "Earth"
          }
        ],
        "orbital_data": {
          "orbit_id": "7",
          "orbit_determination_date": "2014-06-13 11:21:14",
          "orbit_uncertainty": "6",
          "minimum_orbit_intersection": ".0141168",
          "jupiter_tisserand_invariant": "6.870",
          "epoch_osculation": "2457600.5",
          "eccentricity": ".3579131698070511",
          "semi_major_axis": ".8481484400127791",
          "inclination": "12.76046223162559",
          "ascending_node_longitude": "58.69004373873068",
          "orbital_period": "285.302927716458",
          "perihelion_distance": ".5445849433808998",
          "perihelion_argument": "220.6489584253527",
          "aphelion_distance": "1.151711936644658",
          "perihelion_time": "2457639.517905720920",
          "mean_anomaly": "310.7665547915753",
          "mean_motion": "1.261816704375982",
          "equinox": "J2000"
        }
      },
      {
        "links": {
          "self": "https://api.nasa.gov/neo/rest/v1/neo/3663464?api_key=DEMO_KEY"
        },
        "neo_reference_id": "3663464",
        "name": "(2014 EU)",
        "nasa_jpl_url": "http://ssd.jpl.nasa.gov/sbdb.cgi?sstr=3663464",
        "absolute_magnitude_h": 27.7,
        "estimated_diameter": {
          "kilometers": {
            "estimated_diameter_min": 0.0076657557,
            "estimated_diameter_max": 0.0171411509
          },
          "meters": {
            "estimated_diameter_min": 7.6657557353,
            "estimated_diameter_max": 17.1411509231
          },
          "miles": {
            "estimated_diameter_min": 0.0047632783,
            "estimated_diameter_max": 0.0106510141
          },
          "feet": {
            "estimated_diameter_min": 25.1501180466,
            "estimated_diameter_max": 56.2373735944
          }
        },
        "is_potentially_hazardous_asteroid": false,
        "close_approach_data": [
          {
            "close_approach_date": "2016-11-19",
            "epoch_date_close_approach": 1479542400000,
            "relative_velocity": {
              "kilometers_per_second": "10.0450530656",
              "kilometers_per_hour": "36162.1910363198",
              "miles_per_hour": "22469.77920254"
            },
            "miss_distance": {
              "astronomical": "0.1420970562",
              "lunar": "55.2757530212",
              "kilometers": "21257418",
              "miles": "13208747"
            },
            "orbiting_body": "Earth"
          }
        ],
        "orbital_data": {
          "orbit_id": "10",
          "orbit_determination_date": "2014-06-13 19:15:19",
          "orbit_uncertainty": "7",
          "minimum_orbit_intersection": ".00258859",
          "jupiter_tisserand_invariant": "4.980",
          "epoch_osculation": "2457600.5",
          "eccentricity": ".2806948789422314",
          "semi_major_axis": "1.293272654553515",
          "inclination": ".3302711727542874",
          "ascending_node_longitude": "186.6181311384812",
          "orbital_period": "537.196988098726",
          "perihelion_distance": ".9302576433443178",
          "perihelion_argument": "288.8019831297123",
          "aphelion_distance": "1.656287665762712",
          "perihelion_time": "2457754.536602923012",
          "mean_anomaly": "256.7731050604975",
          "mean_motion": ".6701452315921013",
          "equinox": "J2000"
        }
      },
      {
        "links": {
          "self": "https://api.nasa.gov/neo/rest/v1/neo/3735993?api_key=DEMO_KEY"
        },
        "neo_reference_id": "3735993",
        "name": "(2015 XF55)",
        "nasa_jpl_url": "http://ssd.jpl.nasa.gov/sbdb.cgi?sstr=3735993",
        "absolute_magnitude_h": 25,
        "estimated_diameter": {
          "kilometers": {
            "estimated_diameter_min": 0.02658,
            "estimated_diameter_max": 0.0594346868
          },
          "meters": {
            "estimated_diameter_min": 26.58,
            "estimated_diameter_max": 59.4346868419
          },
          "miles": {
            "estimated_diameter_min": 0.0165160412,
            "estimated_diameter_max": 0.0369309908
          },
          "feet": {
            "estimated_diameter_min": 87.2047272,
            "estimated_diameter_max": 194.9956979785
          }
        },
        "is_potentially_hazardous_asteroid": false,
        "close_approach_data": [
          {
            "close_approach_date": "2016-11-19",
            "epoch_date_close_approach": 1479542400000,
            "relative_velocity": {
              "kilometers_per_second": "16.7927336385",
              "kilometers_per_hour": "60453.8410986648",
              "miles_per_hour": "37563.6658760009"
            },
            "miss_distance": {
              "astronomical": "0.3633287743",
              "lunar": "141.3348999023",
              "kilometers": "54353212",
              "miles": "33773520"
            },
            "orbiting_body": "Earth"
          }
        ],
        "orbital_data": {
          "orbit_id": "3",
          "orbit_determination_date": "2016-01-04 12:16:50",
          "orbit_uncertainty": "6",
          "minimum_orbit_intersection": ".0702868",
          "jupiter_tisserand_invariant": "5.872",
          "epoch_osculation": "2457600.5",
          "eccentricity": ".1742497414677182",
          "semi_major_axis": "1.039593589428735",
          "inclination": "9.937852461467628",
          "ascending_node_longitude": "74.70991947038263",
          "orbital_period": "387.1629729492668",
          "perihelion_distance": ".8584446752392809",
          "perihelion_argument": "237.1803627568711",
          "aphelion_distance": "1.220742503618189",
          "perihelion_time": "2457641.863274385421",
          "mean_anomaly": "321.5387322157412",
          "mean_motion": ".9298409846831449",
          "equinox": "J2000"
        }
      }
    ],
    "2016-11-20": [
      {
        "links": {
          "self": "https://api.nasa.gov/neo/rest/v1/neo/2152685?api_key=DEMO_KEY"
        },
        "neo_reference_id": "2152685",
        "name": "152685 (1998 MZ)",
        "nasa_jpl_url": "http://ssd.jpl.nasa.gov/sbdb.cgi?sstr=2152685",
        "absolute_magnitude_h": 19.3,
        "estimated_diameter": {
          "kilometers": {
            "estimated_diameter_min": 0.3669061375,
            "estimated_diameter_max": 0.8204270649
          },
          "meters": {
            "estimated_diameter_min": 366.9061375314,
            "estimated_diameter_max": 820.4270648822
          },
          "miles": {
            "estimated_diameter_min": 0.2279848336,
            "estimated_diameter_max": 0.5097895857
          },
          "feet": {
            "estimated_diameter_min": 1203.7603322587,
            "estimated_diameter_max": 2691.6899315481
          }
        },
        "is_potentially_hazardous_asteroid": true,
        "close_approach_data": [
          {
            "close_approach_date": "2016-11-20",
            "epoch_date_close_approach": 1479628800000,
            "relative_velocity": {
              "kilometers_per_second": "20.7161329283",
              "kilometers_per_hour": "74578.0785420326",
              "miles_per_hour": "46339.9177474091"
            },
            "miss_distance": {
              "astronomical": "0.1060374342",
              "lunar": "41.2485618591",
              "kilometers": "15862975",
              "miles": "9856796"
            },
            "orbiting_body": "Earth"
          }
        ],
        "orbital_data": {
          "orbit_id": "89",
          "orbit_determination_date": "2016-11-17 06:15:17",
          "orbit_uncertainty": "0",
          "minimum_orbit_intersection": ".00158441",
          "jupiter_tisserand_invariant": "4.697",
          "epoch_osculation": "2457600.5",
          "eccentricity": ".5731786701155011",
          "semi_major_axis": "1.346951070697838",
          "inclination": ".1460136675648214",
          "ascending_node_longitude": "121.634211471008",
          "orbital_period": "570.986916006876",
          "perihelion_distance": ".5749074472846011",
          "perihelion_argument": "39.87512620878917",
          "aphelion_distance": "2.118994694111076",
          "perihelion_time": "2457764.163720269064",
          "mean_anomaly": "256.8121026154063",
          "mean_motion": ".6304873017364636",
          "equinox": "J2000"
        }
      },
      {
        "links": {
          "self": "https://api.nasa.gov/neo/rest/v1/neo/3753662?api_key=DEMO_KEY"
        },
        "neo_reference_id": "3753662",
        "name": "(2016 LT)",
        "nasa_jpl_url": "http://ssd.jpl.nasa.gov/sbdb.cgi?sstr=3753662",
        "absolute_magnitude_h": 21.7,
        "estimated_diameter": {
          "kilometers": {
            "estimated_diameter_min": 0.1214940408,
            "estimated_diameter_max": 0.2716689341
          },
          "meters": {
            "estimated_diameter_min": 121.4940407996,
            "estimated_diameter_max": 271.6689340891
          },
          "miles": {
            "estimated_diameter_min": 0.0754928736,
            "estimated_diameter_max": 0.1688071972
          },
          "feet": {
            "estimated_diameter_min": 398.6025088171,
            "estimated_diameter_max": 891.3023057169
          }
        },
        "is_potentially_hazardous_asteroid": false,
        "close_approach_data": [
          {
            "close_approach_date": "2016-11-20",
            "epoch_date_close_approach": 1479628800000,
            "relative_velocity": {
              "kilometers_per_second": "6.8205285823",
              "kilometers_per_hour": "24553.9028964487",
              "miles_per_hour": "15256.8403858517"
            },
            "miss_distance": {
              "astronomical": "0.459255131",
              "lunar": "178.6502380371",
              "kilometers": "68703592",
              "miles": "42690432"
            },
            "orbiting_body": "Earth"
          }
        ],
        "orbital_data": {
          "orbit_id": "9",
          "orbit_determination_date": "2016-11-04 06:17:00",
          "orbit_uncertainty": "4",
          "minimum_orbit_intersection": ".0643346",
          "jupiter_tisserand_invariant": "4.494",
          "epoch_osculation": "2457600.5",
          "eccentricity": ".3618633229872878",
          "semi_major_axis": "1.481843018426631",
          "inclination": "8.92437686175011",
          "ascending_node_longitude": "80.56575833326883",
          "orbital_period": "658.8730204316115",
          "perihelion_distance": ".9456183796332573",
          "perihelion_argument": "251.3144696480732",
          "aphelion_distance": "2.018067657220004",
          "perihelion_time": "2457608.088096790050",
          "mean_anomaly": "355.8539585630195",
          "mean_motion": ".5463875266347571",
          "equinox": "J2000"
        }
      },
      {
        "links": {
          "self": "https://api.nasa.gov/neo/rest/v1/neo/3704154?api_key=DEMO_KEY"
        },
        "neo_reference_id": "3704154",
        "name": "(2015 BZ3)",
        "nasa_jpl_url": "http://ssd.jpl.nasa.gov/sbdb.cgi?sstr=3704154",
        "absolute_magnitude_h": 27.6,
        "estimated_diameter": {
          "kilometers": {
            "estimated_diameter_min": 0.0080270317,
            "estimated_diameter_max": 0.0179489885
          },
          "meters": {
            "estimated_diameter_min": 8.0270316728,
            "estimated_diameter_max": 17.948988478
          },
          "miles": {
            "estimated_diameter_min": 0.0049877647,
            "estimated_diameter_max": 0.0111529809
          },
          "feet": {
            "estimated_diameter_min": 26.3354065935,
            "estimated_diameter_max": 58.8877593581
          }
        },
        "is_potentially_hazardous_asteroid": false,
        "close_approach_data": [
          {
            "close_approach_date": "2016-11-20",
            "epoch_date_close_approach": 1479628800000,
            "relative_velocity": {
              "kilometers_per_second": "7.5272068352",
              "kilometers_per_hour": "27097.9446065954",
              "miles_per_hour": "16837.6089695815"
            },
            "miss_distance": {
              "astronomical": "0.1044809211",
              "lunar": "40.6430778503",
              "kilometers": "15630124",
              "miles": "9712109"
            },
            "orbiting_body": "Earth"
          }
        ],
        "orbital_data": {
          "orbit_id": "6",
          "orbit_determination_date": "2015-03-09 13:03:51",
          "orbit_uncertainty": "6",
          "minimum_orbit_intersection": ".00226034",
          "jupiter_tisserand_invariant": "4.314",
          "epoch_osculation": "2457600.5",
          "eccentricity": ".394652553505738",
          "semi_major_axis": "1.571241596993735",
          "inclination": "6.81122168588844",
          "ascending_node_longitude": "296.1980777421768",
          "orbital_period": "719.3874862739708",
          "perihelion_distance": ".9511470885657238",
          "perihelion_argument": "150.0028619082433",
          "aphelion_distance": "2.191336105421747",
          "perihelion_time": "2457733.915748366608",
          "mean_anomaly": "293.2353282085209",
          "mean_motion": ".5004257189190221",
          "equinox": "J2000"
        }
      }
    ]
  }
}
